[Satellite]
VERSION=1.1
NAME=CLUSTER II-FM8
NICKNAME=CLUSTER II-FM8
TLE1=1 26464U 00045B   17184.71580368  .00000172  00000-0  00000-0 0  9990
TLE2=2 26464 130.9639 333.1039 4439704 152.0612 241.3096  0.44219967 53482
